[Satellite]
VERSION=1.1
NAME=MMS 4
NICKNAME=MMS 4
TLE1=1 40485U 15011D   18014.05208333 -.00001807  00000-0  00000+0 0  9993
TLE2=2 40485  18.1520 309.4157 9053334 162.4045 193.3586  0.35519472  8399
